OSCAR 7 (AO-7)          
1 07530U 74089B   18040.50130639 -.00000023  00000-0  13187-3 0  9992
2 07530 101.6694   9.8280 0011823 221.7523 248.9258 12.53631109978360
UOSAT 2 (UO-11)         
1 14781U 84021B   18040.61214986  .00000063  00000-0  13922-4 0  9996
2 14781  97.6670  82.1509 0009555 134.9919 225.2071 14.82979009804531
LUSAT (LO-19)           
1 20442U 90005G   18040.42571770  .00000009  00000-0  19304-4 0  9992
2 20442  98.5992 339.7840 0012020 162.1366 198.0243 14.32886304465539
EYESAT-1 (AO-27)        
1 22825U 93061C   18040.52839131  .00000011  00000-0  21983-4 0  9992
2 22825  98.8469  14.4393 0008524   6.4636 353.6654 14.30021344271052
ITAMSAT (IO-26)         
1 22826U 93061D   18040.50478237  .00000011  00000-0  22044-4 0  9996
2 22826  98.8410  14.4690 0008853 356.0210   4.0900 14.30352190271255
RADIO ROSTO (RS-15)     
1 23439U 94085A   18040.61969300 -.00000026  00000-0  47495-3 0  9995
2 23439  64.8144 195.1469 0161446 204.7152 240.8693 11.27566623952184
JAS-2 (FO-29)           
1 24278U 96046B   18040.60188145 -.00000036  00000-0 -34087-5 0  9992
2 24278  98.5292 256.8480 0351367  81.9574 282.1272 13.53081139 60736
TECHSAT 1B (GO-32)      
1 25397U 98043D   18040.82088632 -.00000012  00000-0  13851-4 0  9996
2 25397  98.6375 343.4542 0002115  56.5635 303.5746 14.23639429 17605
ISS (ZARYA)             
1 25544U 98067A   18040.57458473  .00001514  00000-0  30164-4 0  9995
2 25544  51.6426 294.8869 0003344  87.4701 341.3335 15.54074418 98674
PCSAT (NO-44)           
1 26931U 01043C   18040.61756558 -.00000033  00000-0  19314-4 0  9994
2 26931  67.0501 198.5759 0005623 280.9088  79.1380 14.30493360854230
SAUDISAT 1C (SO-50)     
1 27607U 02058C   18040.58234031 -.00000029  00000-0  16567-4 0  9997
2 27607  64.5556 120.0660 0049888 359.3188   0.7838 14.75418067814006
CUTE-1 (CO-55)          
1 27844U 03031E   18040.61030847  .00000056  00000-0  44983-4 0  9997
2 27844  98.6890  51.1363 0010187  26.6882 333.4818 14.22093278758025
CUBESAT XI-IV (CO-57)   
1 27848U 03031J   18040.60462111  .00000041  00000-0  38649-4 0  9999
2 27848  98.6979  51.4843 0010257  36.3170 323.8701 14.21700065757907
MOZHAYETS 4 (RS-22)     
1 27939U 03042A   18040.88311970  .00000118  00000-0  29649-4 0  9993
2 27939  97.9688 183.4633 0012882 186.5510 288.8055 14.66655504768159
CUBESAT XI-V (CO-58)    
1 28895U 05043F   18040.35802536  .00000130  00000-0  33807-4 0  9998
2 28895  97.8890 197.1318 0018122 112.3975 247.9150 14.63506510654944
CUTE-1.7+APD II (CO-65) 
1 32785U 08021C   18040.55761521  .00000229  00000-0  30489-4 0  9992
2 32785  97.5532  58.7940 0014645 100.8307 259.4560 14.88058341530124
DELFI-C3 (DO-64)        
1 32789U 08021G   18040.60032026  .00000573  00000-0  43748-4 0  9997
2 32789  97.5297  98.5562 0012830  20.8242 339.3505 15.05732821532481
SEEDS II (CO-66)        
1 32791U 08021J   18040.51759824  .00000293  00000-0  35429-4 0  9998
2 32791  97.5455  63.8079 0014983  84.7516 275.5412 14.90462837530411
YUBILEINY (RS-30)       
1 32953U 08025A   18040.87396266  .00000009  00000-0 -89742-5 0  9992
2 32953  82.5009  91.8638 0020293 126.3758 233.9198 12.43081411440953
PRISM (HITOMI)          
1 33493U 09002B   18040.89686715 -.00000205  00000-0 -12489-4 0  9993
2 33493  98.1425 298.0202 0016411  21.2865 338.9044 14.96062845491317
KKS-1 (KISEKI)          
1 33499U 09002H   18040.60422542  .00000101  00000-0  22969-4 0  9991
2 33499  98.3481 218.2641 0008794 346.4233  13.6737 14.75292362485948
SWISSCUBE               
1 35932U 09051B   18040.35202867  .00000124  00000-0  38979-4 0  9990
2 35932  98.5246 188.5844 0006782 237.1094 122.9451 14.56118650444794
BEESAT                  
1 35933U 09051C   18040.38855668  .00000113  00000-0  36413-4 0  9996
2 35933  98.5286 190.0862 0004814 250.8927 109.1749 14.56227067444945
ITUPSAT 1               
1 35935U 09051E   18040.37131835  .00000094  00000-0  32797-4 0  9999
2 35935  98.5398 190.3232 0007185 246.6777 113.3664 14.55409003444703
XIWANG-1 (HOPE-1)       
1 36122U 09072B   18040.55211719 -.00000049  00000-0 -16836-4 0  9999
2 36122 100.0843  61.1176 0007975  50.8502 309.3319 13.16343230391863
TISAT 1                 
1 36799U 10035E   18040.58552506  .00000437  00000-0  50582-4 0  9990
2 36799  98.0864 173.5862 0011087 266.5071  93.4878 14.90688120410943
JUGNU                   
1 37839U 11058B   18040.42885541  .00000313  00000-0  24924-4 0  9997
2 37839  19.9619  91.9438 0018728 278.8330 194.8851 14.12608707327170
SRMSAT                  
1 37841U 11058D   18040.47166525  .00000295  00000-0  17059-4 0  9999
2 37841  19.9717 138.2534 0011757 166.9601 279.3274 14.10597802326827
M-CUBED & EXP-1 PRIME   
1 37855U 11061F   18040.56606461  .00000865  00000-0  52353-4 0  9995
2 37855 101.7248  37.7899 0177861  99.8066 262.3278 15.04032962341992
HORYU 2                 
1 38340U 12025D   18040.58599148  .00000186  00000-0  35464-4 0  9991
2 38340  98.3744  57.8734 0010406 255.4200 104.5854 14.75495766297883
STRAND-1                
1 39090U 13009E   18040.51216819  .00000033  00000-0  27093-4 0  9991
2 39090  98.5328 248.4610 0008520 322.1518  37.9068 14.35010135259495
SOMP                    
1 39134U 13015E   18040.60639298  .00001330  00000-0  72862-4 0  9992
2 39134  64.8638 179.4943 0026040 227.8152 132.0764 15.18788775265141
BEESAT-3                
1 39135U 13015F   18040.61978553  .00001259  00000-0  74046-4 0  9990
2 39135  64.8687 191.1756 0030533 249.2923 110.4929 15.16372107264918
BEESAT-2                
1 39136U 13015G   18040.61118953  .00000949  00000-0  59152-4 0  9997
2 39136  64.8687 193.6486 0030153 250.6330 109.1535 15.15851296264864
CUBEBUG-1 (CAPITAN BETO)
1 39153U 13018D   18040.49265373  .00000179  00000-0  30454-4 0  9993
2 39153  97.9796 136.5065 0016948   4.7994 355.3377 14.80336635258701
ZACUBE-1 (TSHEPISOSAT)  
1 39417U 13066B   18040.61166989  .00000183  00000-0  29685-4 0  9995
2 39417  97.6024  75.9664 0058458 211.7587 148.0096 14.80871879227914
TRITON-1                
1 39427U 13066M   18040.87562147  .00000152  00000-0  32660-4 0  9993
2 39427  97.6376  45.2756 0112998 307.7410  51.3597 14.67608459225904
GOMX 1                  
1 39430U 13066Q   18040.88430548  .00000254  00000-0  55046-4 0  9993
2 39430  97.6843  27.0280 0152061  12.9656 347.5386 14.59019658224597
HUMSAT-D                
1 39433U 13066T   18040.59854419  .00000324  00000-0  37382-4 0  9992
2 39433  97.6222 101.3343 0032011 145.4029 214.9282 14.91741553228223
EAGLE 2                 
1 39436U 13066W   18040.56799200  .00069841  00000-0  91845-3 0  9990
2 39436  97.7116 166.4545 0006259 293.8162  66.2436 15.58235409232176
CUBEBUG-2 (LO-74)       
1 39440U 13066AA  18040.59267327  .00000170  00000-0  30994-4 0  9997
2 39440  97.6099  63.3587 0079243 249.5043 109.7649 14.75609090225901
FUNCUBE-1 (AO-73)       
1 39444U 13066AE  18040.60643307  .00000229  00000-0  34819-4 0  9994
2 39444  97.6038  77.3240 0057739 207.5897 152.2250 14.81636281226176
UWE-3                   
1 39446U 13066AG  18040.56318529  .00000169  00000-0  29338-4 0  9999
2 39446  97.6048  69.2689 0069196 231.1652 128.3370 14.78141831225677
SPROUT                  
1 39770U 14029E   18040.85537879  .00000447  00000-0  56501-4 0  9993
2 39770  97.8733 143.0267 0007412 265.2990  94.7387 14.86659112201447
UNISAT-6                
1 40012U 14033C   18040.57461965  .00000135  00000-0  27941-4 0  9990
2 40012  97.8271 281.4308 0057183 249.9539 109.5508 14.73761431195903
DUCHIFAT-1              
1 40021U 14033M   18040.55223076  .00000296  00000-0  36496-4 0  9990
2 40021  97.9178 319.0422 0011700 236.4686 123.5414 14.90191788197943
FUNCUBE-3 (EO-79)       
1 40025U 14033R   18040.57333751  .00000254  00000-0  33313-4 0  9997
2 40025  97.9090 316.2149 0011201 242.4856 117.5223 14.88631820197299
CHUBUSAT-1              
1 40300U 14070C   18040.83331447  .00000413  00000-0  21431-4 0  9998
2 40300  97.3754 121.2022 0020136 354.8484 112.9601 15.21374442180914
NUDT-PHONESAT           
1 40900U 15049B   18040.54836665  .00001986  00000-0  93118-4 0  9998
2 40900  97.4430  50.3136 0015198 113.4315 246.8520 15.20757688132510
ZDPS 2A                 
1 40901U 15049C   18040.57152931  .00000756  00000-0  41755-4 0  9993
2 40901  97.4594  48.9303 0015261 118.2397 242.0379 15.16841542132311
ZDPS 2B                 
1 40902U 15049D   18040.79226297  .00000748  00000-0  41547-4 0  9995
2 40902  97.4483  47.3844 0015379 114.9877 245.2955 15.16649570132332
XW-2A                   
1 40903U 15049E   18040.77640871  .00001712  00000-0  44921-4 0  9993
2 40903  97.3998  74.2949 0015799 126.0770 234.1942 15.39979266134192
KAITUO 1A               
1 40904U 15049F   18040.86959672  .00000619  00000-0  36691-4 0  9996
2 40904  97.4583  46.8529 0016395 115.6875   2.6832 15.14876484132225
2015-049G               
1 40905U 15049G   18040.84892003  .00000360  00000-0  23455-4 0  9996
2 40905  97.4566  45.1232 0017428 109.5781 250.7334 15.13851277132153
XW-2C                   
1 40906U 15049H   18040.85336043  .00000592  00000-0  35125-4 0  9999
2 40906  97.4589  46.7040 0016679 109.3829 250.9208 15.15006279132216
XW-2D                   
1 40907U 15049J   18040.81793427  .00000636  00000-0  37362-4 0  9993
2 40907  97.4561  46.3832 0016065 107.4952 252.8037 15.15143564132217
LILACSAT 2              
1 40908U 15049K   18040.54190317  .00000369  00000-0  24208-4 0  9991
2 40908  97.4669  45.6316 0017653 109.0370 251.2775 15.13400945132064
XW-2F                   
1 40910U 15049M   18040.53300455  .00001057  00000-0  57933-4 0  9995
2 40910  97.4570  47.1895 0016838 105.2588 255.0508 15.16245424132114
XW-2B                   
1 40911U 15049N   18040.89698201  .00000611  00000-0  36061-4 0  9998
2 40911  97.4599  46.9482 0015969 107.7115 252.5862 15.15092876132128
